{
  "norad_id": 38257,
  "name": "YAOGAN-14",
  "history": [
    {
      "epoch": "2026-03-28T21:50:10.727232Z",
      "apogee_km": 489.7174786299365,
      "perigee_km": 480.7500729091471,
      "latitude_deg": 8.015275236936575e-06,
      "longitude_deg": 73.05928073645488,
      "height_km": 489.5001215998311,
      "semi_major_axis_km": 6863.370775769541,
      "eccentricity": 0.00065328,
      "inclination_deg": 97.2889,
      "raan_deg": 226.9275,
      "arg_perigee_deg": 105.1952,
      "mean_anomaly_deg": 255.001,
      "mean_motion_rev_day": 15.26850692
    },
    {
      "epoch": "2026-03-29T04:07:40.297152Z",
      "apogee_km": 489.78502944332104,
      "perigee_km": 480.7143775759632,
      "latitude_deg": -2.5473470136026357e-05,
      "longitude_deg": -21.316507613726092,
      "height_km": 489.4836079866512,
      "semi_major_axis_km": 6863.386703509642,
      "eccentricity": 0.0006608,
      "inclination_deg": 97.2889,
      "raan_deg": 227.1833,
      "arg_perigee_deg": 104.5971,
      "mean_anomaly_deg": 255.6001,
      "mean_motion_rev_day": 15.26845377
    }
  ]
}